start=new Date('2023-03-29T00:00:00.000Z').valueOf();
sats=[{"EPOCH":"2023-03-28T20:42:30.995136","ELEMENT_SET_NO":"999","SITE":"AFETR","NORAD_CAT_ID":"48107","INCLINATION":"53.0535","EPHEMERIS_TYPE":"0","RA_OF_ASC_NODE":"305.6790","PERIOD":"95.588","FILE":"3873602","CLASSIFICATION_TYPE":"U","BSTAR":"0.00167650000000","ARG_OF_PERICENTER":"77.9470","CENTER_NAME":"EARTH","REF_FRAME":"TEME","MEAN_ELEMENT_THEORY":"SGP4","DECAY_DATE":null,"MEAN_MOTION_DDOT":"0.0000000000000","GP_ID":"229036905","APOAPSIS":"547.436","RCS_SIZE":"LARGE","LAUNCH_DATE":"2021-04-07","ECCENTRICITY":"0.00005800","MEAN_ANOMALY":"282.1584","OBJECT_NAME":"STARLINK-2443","SEMIMAJOR_AXIS":"6925.169","MEAN_MOTION_DOT":"0.00024818","COUNTRY_CODE":"US","OBJECT_TYPE":"PAYLOAD","TIME_SYSTEM":"UTC","TLE_LINE1":"1 48107U 21027R   23087.86285874  .00024818  00000-0  16765-2 0  9990","PERIAPSIS":"546.632","REV_AT_EPOCH":"10999","MEAN_MOTION":"15.06458572","OBJECT_ID":"2021-027R","TLE_LINE2":"2 48107  53.0535 305.6790 0000580  77.9470 282.1584 15.06458572109991"},{"EPHEMERIS_TYPE":"0","NORAD_CAT_ID":"48108","INCLINATION":"53.0544","ELEMENT_SET_NO":"999","SITE":"AFETR","EPOCH":"2023-03-28T21:39:35.122176","ARG_OF_PERICENTER":"78.0636","BSTAR":"0.00144470000000","CLASSIFICATION_TYPE":"U","PERIOD":"95.589","FILE":"3873921","RA_OF_ASC_NODE":"315.5042","REF_FRAME":"TEME","CENTER_NAME":"EARTH","LAUNCH_DATE":"2021-04-07","GP_ID":"229065335","APOAPSIS":"547.979","RCS_SIZE":"LARGE","MEAN_MOTION_DDOT":"0.0000000000000","MEAN_ELEMENT_THEORY":"SGP4","DECAY_DATE":null,"OBJECT_NAME":"STARLINK-2444","MEAN_ANOMALY":"282.0505","ECCENTRICITY":"0.00013540","TLE_LINE1":"1 48108U 21027S   23087.90248984  .00021335  00000-0  14447-2 0  9993","MEAN_MOTION_DOT":"0.00021335","COUNTRY_CODE":"US","OBJECT_TYPE":"PAYLOAD","TIME_SYSTEM":"UTC","SEMIMAJOR_AXIS":"6925.176","OBJECT_ID":"2021-027S","MEAN_MOTION":"15.06456288","REV_AT_EPOCH":"11025","PERIAPSIS":"546.103","TLE_LINE2":"2 48108  53.0544 315.5042 0001354  78.0636 282.0505 15.06456288110253"},{"TLE_LINE2":"2 48109  53.0537 325.7383 0001203 135.1533 224.9553 15.06482481110118","OBJECT_ID":"2021-027T","REV_AT_EPOCH":"11011","MEAN_MOTION":"15.06482481","PERIAPSIS":"546.128","TLE_LINE1":"1 48109U 21027T   23087.84997611  .00041146  00000-0  27590-2 0  9990","COUNTRY_CODE":"US","MEAN_MOTION_DOT":"0.00041146","OBJECT_TYPE":"PAYLOAD","TIME_SYSTEM":"UTC","SEMIMAJOR_AXIS":"6925.096","OBJECT_NAME":"STARLINK-2445","MEAN_ANOMALY":"224.9553","ECCENTRICITY":"0.00012030","LAUNCH_DATE":"2021-04-07","GP_ID":"229065586","APOAPSIS":"547.794","RCS_SIZE":"LARGE","MEAN_MOTION_DDOT":"0.0000000000000","MEAN_ELEMENT_THEORY":"SGP4","DECAY_DATE":null,"REF_FRAME":"TEME","CENTER_NAME":"EARTH","ARG_OF_PERICENTER":"135.1533","BSTAR":"0.00275900000000","CLASSIFICATION_TYPE":"U","PERIOD":"95.587","FILE":"3873921","RA_OF_ASC_NODE":"325.7383","EPHEMERIS_TYPE":"0","NORAD_CAT_ID":"48109","INCLINATION":"53.0537","ELEMENT_SET_NO":"999","SITE":"AFETR","EPOCH":"2023-03-28T20:23:57.935904"},{"REF_FRAME":"TEME","CENTER_NAME":"EARTH","LAUNCH_DATE":"2021-04-07","RCS_SIZE":"LARGE","GP_ID":"229066315","APOAPSIS":"547.531","MEAN_MOTION_DDOT":"0.0000000000000","DECAY_DATE":null,"MEAN_ELEMENT_THEORY":"SGP4","EPHEMERIS_TYPE":"0","NORAD_CAT_ID":"48110","INCLINATION":"53.0520","ELEMENT_SET_NO":"999","SITE":"AFETR","EPOCH":"2023-03-28T21:23:39.526944","ARG_OF_PERICENTER":"71.7389","BSTAR":"0.00259900000000","CLASSIFICATION_TYPE":"U","FILE":"3873921","PERIOD":"95.587","RA_OF_ASC_NODE":"315.5568","OBJECT_ID":"2021-027U","REV_AT_EPOCH":"11026","MEAN_MOTION":"15.06484992","PERIAPSIS":"546.375","TLE_LINE2":"2 48110  53.0520 315.5568 0000835  71.7389 288.3691 15.06484992110260","OBJECT_NAME":"STARLINK-2447","MEAN_ANOMALY":"288.3691","ECCENTRICITY":"0.00008350","TLE_LINE1":"1 48110U 21027U   23087.89142971  .00038733  00000-0  25990-2 0  9998","TIME_SYSTEM":"UTC","OBJECT_TYPE":"PAYLOAD","COUNTRY_CODE":"US","MEAN_MOTION_DOT":"0.00038733","SEMIMAJOR_AXIS":"6925.088"},{"OBJECT_ID":"2021-027V","MEAN_MOTION":"15.06431711","REV_AT_EPOCH":"11026","PERIAPSIS":"546.421","TLE_LINE2":"2 48111  53.0522 315.5561 0001004  87.6498 272.4606 15.06431711110263","OBJECT_NAME":"STARLINK-2448","MEAN_ANOMALY":"272.4606","ECCENTRICITY":"0.00010040","TLE_LINE1":"1 48111U 21027V   23087.88406159  .00028259  00000-0  19068-2 0  9990","COUNTRY_CODE":"US","OBJECT_TYPE":"PAYLOAD","MEAN_MOTION_DOT":"0.00028259","TIME_SYSTEM":"UTC","SEMIMAJOR_AXIS":"6925.251","REF_FRAME":"TEME","CENTER_NAME":"EARTH","LAUNCH_DATE":"2021-04-07","GP_ID":"229065085","APOAPSIS":"547.812","RCS_SIZE":"LARGE","MEAN_MOTION_DDOT":"0.0000000000000","MEAN_ELEMENT_THEORY":"SGP4","DECAY_DATE":null,"EPHEMERIS_TYPE":"0","NORAD_CAT_ID":"48111","INCLINATION":"53.0522","SITE":"AFETR","ELEMENT_SET_NO":"999","EPOCH":"2023-03-28T21:13:02.921376","ARG_OF_PERICENTER":"87.6498","BSTAR":"0.00190680000000","CLASSIFICATION_TYPE":"U","PERIOD":"95.590","FILE":"3873921","RA_OF_ASC_NODE":"315.5561"},{"LAUNCH_DATE":"2021-04-07","APOAPSIS":"548.097","GP_ID":"229030941","RCS_SIZE":"LARGE","MEAN_MOTION_DDOT":"0.0000000000000","MEAN_ELEMENT_THEORY":"SGP4","DECAY_DATE":null,"CENTER_NAME":"EARTH","REF_FRAME":"TEME","ARG_OF_PERICENTER":"64.6648","BSTAR":"0.00507360000000","CLASSIFICATION_TYPE":"U","PERIOD":"95.594","FILE":"3873565","RA_OF_ASC_NODE":"334.9525","EPHEMERIS_TYPE":"0","INCLINATION":"53.0537","NORAD_CAT_ID":"48112","SITE":"AFETR","ELEMENT_SET_NO":"999","EPOCH":"2023-03-27T22:45:33.902784","TLE_LINE2":"2 48112  53.0537 334.9525 0001180  64.6648 295.4463 15.06378367109904","OBJECT_ID":"2021-027W","MEAN_MOTION":"15.06378367","REV_AT_EPOCH":"10990","PERIAPSIS":"546.463","TLE_LINE1":"1 48112U 21027W   23086.94830906  .00076064  00000-0  50736-2 0  9992","COUNTRY_CODE":"US","MEAN_MOTION_DOT":"0.00076064","OBJECT_TYPE":"PAYLOAD","TIME_SYSTEM":"UTC","SEMIMAJOR_AXIS":"6925.415","OBJECT_NAME":"STARLINK-2449","MEAN_ANOMALY":"295.4463","ECCENTRICITY":"0.00011800"},{"EPHEMERIS_TYPE":"0","NORAD_CAT_ID":"48113","INCLINATION":"53.0536","ELEMENT_SET_NO":"999","SITE":"AFETR","EPOCH":"2023-03-28T22:41:56.855616","ARG_OF_PERICENTER":"95.0582","CLASSIFICATION_TYPE":"U","BSTAR":"0.00224230000000","PERIOD":"95.588","FILE":"3873872","RA_OF_ASC_NODE":"325.3077","REF_FRAME":"TEME","CENTER_NAME":"EARTH","LAUNCH_DATE":"2021-04-07","APOAPSIS":"547.617","GP_ID":"229042768","RCS_SIZE":"LARGE","MEAN_MOTION_DDOT":"0.0000000000000","MEAN_ELEMENT_THEORY":"SGP4","DECAY_DATE":null,"OBJECT_NAME":"STARLINK-2450","MEAN_ANOMALY":"265.0509","ECCENTRICITY":"0.00008910","TLE_LINE1":"1 48113U 21027X   23087.94579694  .00033339  00000-0  22423-2 0  9998","COUNTRY_CODE":"US","MEAN_MOTION_DOT":"0.00033339","OBJECT_TYPE":"PAYLOAD","TIME_SYSTEM":"UTC","SEMIMAJOR_AXIS":"6925.135","OBJECT_ID":"2021-027X","MEAN_MOTION":"15.06469810","REV_AT_EPOCH":"10972","PERIAPSIS":"546.383","TLE_LINE2":"2 48113  53.0536 325.3077 0000891  95.0582 265.0509 15.06469810109721"},{"NORAD_CAT_ID":"48114","INCLINATION":"53.0548","EPHEMERIS_TYPE":"0","EPOCH":"2023-03-28T21:45:31.470336","ELEMENT_SET_NO":"999","SITE":"AFETR","CLASSIFICATION_TYPE":"U","BSTAR":"0.00185770000000","ARG_OF_PERICENTER":"94.3725","RA_OF_ASC_NODE":"320.4829","PERIOD":"95.589","FILE":"3873921","REF_FRAME":"TEME","CENTER_NAME":"EARTH","GP_ID":"229065815","APOAPSIS":"547.861","RCS_SIZE":"LARGE","LAUNCH_DATE":"2021-04-07","MEAN_ELEMENT_THEORY":"SGP4","DECAY_DATE":null,"MEAN_MOTION_DDOT":"0.0000000000000","MEAN_ANOMALY":"265.7398","OBJECT_NAME":"STARLINK-2451","ECCENTRICITY":"0.00011740","TLE_LINE1":"1 48114U 21027Y   23087.90661424  .00027538  00000-0  18577-2 0  9997","SEMIMAJOR_AXIS":"6925.183","OBJECT_TYPE":"PAYLOAD","COUNTRY_CODE":"US","MEAN_MOTION_DOT":"0.00027538","TIME_SYSTEM":"UTC","OBJECT_ID":"2021-027Y","PERIAPSIS":"546.235","MEAN_MOTION":"15.06454042","REV_AT_EPOCH":"11019","TLE_LINE2":"2 48114  53.0548 320.4829 0001174  94.3725 265.7398 15.06454042110199"},{"EPHEMERIS_TYPE":"0","NORAD_CAT_ID":"48115","INCLINATION":"53.0550","SITE":"AFETR","ELEMENT_SET_NO":"999","EPOCH":"2023-03-28T20:50:27.477312","ARG_OF_PERICENTER":"98.4186","CLASSIFICATION_TYPE":"U","BSTAR":"0.00147960000000","PERIOD":"95.589","FILE":"3873921","RA_OF_ASC_NODE":"315.6558","REF_FRAME":"TEME","CENTER_NAME":"EARTH","LAUNCH_DATE":"2021-04-07","GP_ID":"229064585","APOAPSIS":"547.884","RCS_SIZE":"LARGE","MEAN_MOTION_DDOT":"0.0000000000000","MEAN_ELEMENT_THEORY":"SGP4","DECAY_DATE":null,"OBJECT_NAME":"STARLINK-2452","MEAN_ANOMALY":"261.6935","ECCENTRICITY":"0.00011680","TLE_LINE1":"1 48115U 21027Z   23087.86837358  .00021853  00000-0  14796-2 0  9997","MEAN_MOTION_DOT":"0.00021853","COUNTRY_CODE":"US","OBJECT_TYPE":"PAYLOAD","TIME_SYSTEM":"UTC","SEMIMAJOR_AXIS":"6925.210","OBJECT_ID":"2021-027Z","REV_AT_EPOCH":"11025","MEAN_MOTION":"15.06445076","PERIAPSIS":"546.267","TLE_LINE2":"2 48115  53.0550 315.6558 0001168  98.4186 261.6935 15.06445076110253"},{"FILE":"3873790","PERIOD":"95.587","RA_OF_ASC_NODE":"325.3295","ARG_OF_PERICENTER":"104.6160","BSTAR":"0.00227930000000","CLASSIFICATION_TYPE":"U","SITE":"AFETR","ELEMENT_SET_NO":"999","EPOCH":"2023-03-28T22:36:37.813248","EPHEMERIS_TYPE":"0","NORAD_CAT_ID":"48116","INCLINATION":"53.0537","MEAN_MOTION_DDOT":"0.0000000000000","DECAY_DATE":null,"MEAN_ELEMENT_THEORY":"SGP4","LAUNCH_DATE":"2021-04-07","RCS_SIZE":"LARGE","APOAPSIS":"547.812","GP_ID":"229041089","CENTER_NAME":"EARTH","REF_FRAME":"TEME","TIME_SYSTEM":"UTC","COUNTRY_CODE":"US","MEAN_MOTION_DOT":"0.00033901","OBJECT_TYPE":"PAYLOAD","SEMIMAJOR_AXIS":"6925.121","TLE_LINE1":"1 48116U 21027AA  23087.94210432  .00033901  00000-0  22793-2 0  9998","ECCENTRICITY":"0.00011930","OBJECT_NAME":"STARLINK-2454","MEAN_ANOMALY":"255.4961","TLE_LINE2":"2 48116  53.0537 325.3295 0001193 104.6160 255.4961 15.06474315109723","MEAN_MOTION":"15.06474315","REV_AT_EPOCH":"10972","PERIAPSIS":"546.160","OBJECT_ID":"2021-027AA"}];
